ADRAS-J                 
1 58992U 24034A   24204.53565557  .00006476  00000+0  59783-3 0  9996
2 58992  98.2136 179.1721 0041957 293.2252  66.4551 14.94331495 23143
